[{"OBJECT_NAME":"RAPTOR3","OBJECT_ID":"2024-028D","EPOCH":"2026-03-09T13:07:46.781472","MEAN_MOTION":13.70481191,"ECCENTRICITY":0.001103,"INCLINATION":39.9902,"RA_OF_ASC_NODE":141.1531,"ARG_OF_PERICENTER":37.2378,"MEAN_ANOMALY":322.9131,"EPHEMERIS_TYPE":0,"CLASSIFICATION_TYPE":"U","NORAD_CAT_ID":58958,"ELEMENT_SET_NO":999,"REV_AT_EPOCH":10339,"BSTAR":5.4463e-5,"MEAN_MOTION_DOT":-2.9e-7,"MEAN_MOTION_DDOT":0},{"OBJECT_NAME":"COSMOS 1089","OBJECT_ID":"1979-026A","EPOCH":"2026-03-09T22:58:16.902912","MEAN_MOTION":13.75410454,"ECCENTRICITY":0.00212919,"INCLINATION":82.9733,"RA_OF_ASC_NODE":228.3019,"ARG_OF_PERICENTER":295.3951,"MEAN_ANOMALY":184.9093,"EPHEMERIS_TYPE":0,"CLASSIFICATION_TYPE":"U","NORAD_CAT_ID":11308,"ELEMENT_SET_NO":999,"REV_AT_EPOCH":35574,"BSTAR":5.8904785e-5,"MEAN_MOTION_DOT":7.2e-7,"MEAN_MOTION_DDOT":0}]
